[{"OBJECT_NAME":"VSP RF C1","OBJECT_ID":"2024-043AQ","EPOCH":"2026-03-09T21:56:05.358624","MEAN_MOTION":15.29409663,"ECCENTRICITY":0.00093965,"INCLINATION":97.5441,"RA_OF_ASC_NODE":205.1792,"ARG_OF_PERICENTER":219.6172,"MEAN_ANOMALY":140.4382,"EPHEMERIS_TYPE":0,"CLASSIFICATION_TYPE":"U","NORAD_CAT_ID":59136,"ELEMENT_SET_NO":999,"REV_AT_EPOCH":11190,"BSTAR":0.00026222052,"MEAN_MOTION_DOT":7.409e-5,"MEAN_MOTION_DDOT":0},{"OBJECT_NAME":"STARLINK-32347","OBJECT_ID":"2024-158W","EPOCH":"2026-03-09T08:56:34.727424","MEAN_MOTION":15.30192169,"ECCENTRICITY":0.00014204,"INCLINATION":53.161,"RA_OF_ASC_NODE":66.9345,"ARG_OF_PERICENTER":92.7786,"MEAN_ANOMALY":267.3378,"EPHEMERIS_TYPE":0,"CLASSIFICATION_TYPE":"U","NORAD_CAT_ID":61010,"ELEMENT_SET_NO":999,"REV_AT_EPOCH":8553,"BSTAR":1.1387344e-5,"MEAN_MOTION_DOT":-2.2e-7,"MEAN_MOTION_DDOT":0}]
